{
  "type": "FeatureCollection",
  "features": [
    {
      "type": "Feature",
      "properties": {
        "norad_id": 57400,
        "name": "TIANMU-1 08",
        "group": "weather",
        "lat": -82.44586976949233,
        "lon": 118.17851430679703,
        "alt_km": 493.1205257143665,
        "timestamp": "2025-12-19T22:41:52.021883+00:00",
        "meta_object_name": "TIANMU-1 08",
        "meta_object_id": "2023-101B",
        "meta_epoch": "2025-12-19T18:22:05.044224",
        "meta_mean_motion": 15.28148445,
        "meta_eccentricity": 0.0007291,
        "meta_inclination": 97.2858,
        "meta_ra_of_asc_node": 43.2573,
        "meta_arg_of_pericenter": 64.3278,
        "meta_mean_anomaly": 295.8714,
        "meta_ephemeris_type": 0,
        "meta_classification_type": "U",
        "meta_norad_cat_id": 57400,
        "meta_element_set_no": 999,
        "meta_rev_at_epoch": 13422,
        "meta_bstar": 0.00019195,
        "meta_mean_motion_dot": 5.197e-05,
        "meta_mean_motion_ddot": 0,
        "tle_line1": "1 57400U 23101B   25353.76533616  .00005197  00000+0  19195-3 0  9997",
        "tle_line2": "2 57400  97.2858  43.2573 0007291  64.3278 295.8714 15.28148445134220"
      },
      "geometry": {
        "type": "Point",
        "coordinates": [
          118.17851430679703,
          -82.44586976949233
        ]
      }
    },
    {
      "type": "Feature",
      "properties": {
        "norad_id": 57401,
        "name": "TIANMU-1 09",
        "group": "weather",
        "lat": -14.595011191989347,
        "lon": 44.851422051407006,
        "alt_km": 485.15807929877246,
        "timestamp": "2025-12-19T22:41:52.021899+00:00",
        "meta_object_name": "TIANMU-1 09",
        "meta_object_id": "2023-101C",
        "meta_epoch": "2025-12-19T18:02:50.932896",
        "meta_mean_motion": 15.28181106,
        "meta_eccentricity": 0.0006548,
        "meta_inclination": 97.2814,
        "meta_ra_of_asc_node": 42.7541,
        "meta_arg_of_pericenter": 64.9375,
        "meta_mean_anomaly": 295.2544,
        "meta_ephemeris_type": 0,
        "meta_classification_type": "U",
        "meta_norad_cat_id": 57401,
        "meta_element_set_no": 999,
        "meta_rev_at_epoch": 13422,
        "meta_bstar": 0.00020057,
        "meta_mean_motion_dot": 5.439e-05,
        "meta_mean_motion_ddot": 0,
        "tle_line1": "1 57401U 23101C   25353.75197839  .00005439  00000+0  20057-3 0  9998",
        "tle_line2": "2 57401  97.2814  42.7541 0006548  64.9375 295.2544 15.28181106134226"
      },
      "geometry": {
        "type": "Point",
        "coordinates": [
          44.851422051407006,
          -14.595011191989347
        ]
      }
    },
    {
      "type": "Feature",
      "properties": {
        "norad_id": 57402,
        "name": "TIANMU-1 10",
        "group": "weather",
        "lat": 22.416038864650766,
        "lon": -133.17240313935386,
        "alt_km": 481.5280769066394,
        "timestamp": "2025-12-19T22:41:52.021915+00:00",
        "meta_object_name": "TIANMU-1 10",
        "meta_object_id": "2023-101D",
        "meta_epoch": "2025-12-19T17:17:52.702368",
        "meta_mean_motion": 15.2817217,
        "meta_eccentricity": 0.0008268,
        "meta_inclination": 97.2895,
        "meta_ra_of_asc_node": 43.5807,
        "meta_arg_of_pericenter": 63.2552,
        "meta_mean_anomaly": 296.9533,
        "meta_ephemeris_type": 0,
        "meta_classification_type": "U",
        "meta_norad_cat_id": 57402,
        "meta_element_set_no": 999,
        "meta_rev_at_epoch": 13421,
        "meta_bstar": 0.00018892,
        "meta_mean_motion_dot": 5.119e-05,
        "meta_mean_motion_ddot": 0,
        "tle_line1": "1 57402U 23101D   25353.72074887  .00005119  00000+0  18892-3 0  9992",
        "tle_line2": "2 57402  97.2895  43.5807 0008268  63.2552 296.9533 15.28172170134216"
      },
      "geometry": {
        "type": "Point",
        "coordinates": [
          -133.17240313935386,
          22.416038864650766
        ]
      }
    },
    {
      "type": "Feature",
      "properties": {
        "norad_id": 57490,
        "name": "FENGYUN 3F",
        "group": "weather",
        "lat": 45.38124521683611,
        "lon": -108.94287096869618,
        "alt_km": 821.2506642125754,
        "timestamp": "2025-12-19T22:41:52.021932+00:00",
        "meta_object_name": "FENGYUN 3F",
        "meta_object_id": "2023-111A",
        "meta_epoch": "2025-12-19T18:41:13.541280",
        "meta_mean_motion": 14.19895289,
        "meta_eccentricity": 7.44e-05,
        "meta_inclination": 98.7075,
        "meta_ra_of_asc_node": 61.9582,
        "meta_arg_of_pericenter": 113.0433,
        "meta_mean_anomaly": 247.0822,
        "meta_ephemeris_type": 0,
        "meta_classification_type": "U",
        "meta_norad_cat_id": 57490,
        "meta_element_set_no": 999,
        "meta_rev_at_epoch": 12340,
        "meta_bstar": 4.7031e-05,
        "meta_mean_motion_dot": 5.6e-07,
        "meta_mean_motion_ddot": 0,
        "tle_line1": "1 57490U 23111A   25353.77862895  .00000056  00000+0  47031-4 0  9992",
        "tle_line2": "2 57490  98.7075  61.9582 0000744 113.0433 247.0822 14.19895289123405"
      },
      "geometry": {
        "type": "Point",
        "coordinates": [
          -108.94287096869618,
          45.38124521683611
        ]
      }
    },
    {
      "type": "Feature",
      "properties": {
        "norad_id": 58584,
        "name": "ARKTIKA-M 2",
        "group": "weather",
        "lat": 57.83978086112294,
        "lon": -132.43737410336783,
        "alt_km": 34679.44491873254,
        "timestamp": "2025-12-19T22:41:52.021951+00:00",
        "meta_object_name": "ARKTIKA-M 2",
        "meta_object_id": "2023-198A",
        "meta_epoch": "2025-12-18T19:26:38.867712",
        "meta_mean_motion": 2.00602974,
        "meta_eccentricity": 0.68653183,
        "meta_inclination": 63.225,
        "meta_ra_of_asc_node": 174.2298,
        "meta_arg_of_pericenter": 268.0801,
        "meta_mean_anomaly": 18.8403,
        "meta_ephemeris_type": 0,
        "meta_classification_type": "U",
        "meta_norad_cat_id": 58584,
        "meta_element_set_no": 999,
        "meta_rev_at_epoch": 1470,
        "meta_bstar": 0,
        "meta_mean_motion_dot": 2e-06,
        "meta_mean_motion_ddot": 0,
        "tle_line1": "1 58584U 23198A   25352.81017208  .00000200  00000+0  00000+0 0  9997",
        "tle_line2": "2 58584  63.2250 174.2298 6865318 268.0801  18.8403  2.00602974 14701"
      },
      "geometry": {
        "type": "Point",
        "coordinates": [
          -132.43737410336783,
          57.83978086112294
        ]
      }
    },
    {
      "type": "Feature",
      "properties": {
        "norad_id": 58645,
        "name": "TIANMU-1 11",
        "group": "weather",
        "lat": -65.029142249256,
        "lon": 177.32872551809265,
        "alt_km": 494.6867283141355,
        "timestamp": "2025-12-19T22:41:52.021971+00:00",
        "meta_object_name": "TIANMU-1 11",
        "meta_object_id": "2023-205A",
        "meta_epoch": "2025-12-19T18:28:16.001760",
        "meta_mean_motion": 15.24679854,
        "meta_eccentricity": 0.0007567,
        "meta_inclination": 97.3596,
        "meta_ra_of_asc_node": 13.2696,
        "meta_arg_of_pericenter": 280.7042,
        "meta_mean_anomaly": 79.3343,
        "meta_ephemeris_type": 0,
        "meta_classification_type": "U",
        "meta_norad_cat_id": 58645,
        "meta_element_set_no": 999,
        "meta_rev_at_epoch": 11016,
        "meta_bstar": 0.00017828,
        "meta_mean_motion_dot": 4.338e-05,
        "meta_mean_motion_ddot": 0,
        "tle_line1": "1 58645U 23205A   25353.76962965  .00004338  00000+0  17828-3 0  9994",
        "tle_line2": "2 58645  97.3596  13.2696 0007567 280.7042  79.3343 15.24679854110163"
      },
      "geometry": {
        "type": "Point",
        "coordinates": [
          177.32872551809265,
          -65.029142249256
        ]
      }
    },
    {
      "type": "Feature",
      "properties": {
        "norad_id": 58646,
        "name": "TIANMU-1 12",
        "group": "weather",
        "lat": 80.95992041342377,
        "lon": -112.43961673895609,
        "alt_km": 488.48092830716814,
        "timestamp": "2025-12-19T22:41:52.022009+00:00",
        "meta_object_name": "TIANMU-1 12",
        "meta_object_id": "2023-205B",
        "meta_epoch": "2025-12-19T19:07:50.598624",
        "meta_mean_motion": 15.24564904,
        "meta_eccentricity": 0.0005782,
        "meta_inclination": 97.3583,
        "meta_ra_of_asc_node": 13.0996,
        "meta_arg_of_pericenter": 259.0396,
        "meta_mean_anomaly": 101.0191,
        "meta_ephemeris_type": 0,
        "meta_classification_type": "U",
        "meta_norad_cat_id": 58646,
        "meta_element_set_no": 999,
        "meta_rev_at_epoch": 11015,
        "meta_bstar": 0.00018918,
        "meta_mean_motion_dot": 4.59e-05,
        "meta_mean_motion_ddot": 0,
        "tle_line1": "1 58646U 23205B   25353.79711341  .00004590  00000+0  18918-3 0  9999",
        "tle_line2": "2 58646  97.3583  13.0996 0005782 259.0396 101.0191 15.24564904110151"
      },
      "geometry": {
        "type": "Point",
        "coordinates": [
          -112.43961673895609,
          80.95992041342377
        ]
      }
    }
  ]
}